{
  "norad_id": 56292,
  "name": "STARLINK-30098",
  "history": [
    {
      "epoch": "2026-05-03T15:27:28.253664Z",
      "apogee_km": 483.775663426949,
      "perigee_km": 482.30737122424034,
      "latitude_deg": -3.4825703710795e-05,
      "longitude_deg": 165.21653143505384,
      "height_km": 482.9917957850781,
      "semi_major_axis_km": 6861.178517325594,
      "eccentricity": 0.000107,
      "inclination_deg": 43.0,
      "raan_deg": 258.6291,
      "arg_perigee_deg": 256.2975,
      "mean_anomaly_deg": 103.7757,
      "mean_motion_rev_day": 15.27582531
    },
    {
      "epoch": "2026-05-04T10:17:21.664608Z",
      "apogee_km": 483.9032748321197,
      "perigee_km": 482.23641324142955,
      "latitude_deg": -1.0776224718043383e-05,
      "longitude_deg": -122.46067346786785,
      "height_km": 482.9313351990108,
      "semi_major_axis_km": 6861.206844036774,
      "eccentricity": 0.00012147,
      "inclination_deg": 43.0012,
      "raan_deg": 254.1978,
      "arg_perigee_deg": 264.1583,
      "mean_anomaly_deg": 95.913,
      "mean_motion_rev_day": 15.27573071
    },
    {
      "epoch": "2026-05-05T17:40:27.640128Z",
      "apogee_km": 483.93723680888525,
      "perigee_km": 482.0435656461477,
      "latitude_deg": -3.998368998807848e-05,
      "longitude_deg": 118.09095663530928,
      "height_km": 482.79601887088,
      "semi_major_axis_km": 6861.127401227516,
      "eccentricity": 0.000138,
      "inclination_deg": 43.0024,
      "raan_deg": 246.8133,
      "arg_perigee_deg": 268.265,
      "mean_anomaly_deg": 91.8043,
      "mean_motion_rev_day": 15.27599602
    },
    {
      "epoch": "2026-05-06T14:04:32.609856Z",
      "apogee_km": 484.3349892266506,
      "perigee_km": 481.8704319226117,
      "latitude_deg": 4.189531747253055e-06,
      "longitude_deg": 166.43513836150277,
      "height_km": 482.5811856659841,
      "semi_major_axis_km": 6861.23971057463,
      "eccentricity": 0.0001796,
      "inclination_deg": 43.004,
      "raan_deg": 242.016,
      "arg_perigee_deg": 284.042,
      "mean_anomaly_deg": 76.0232,
      "mean_motion_rev_day": 15.27562095
    },
    {
      "epoch": "2026-05-07T16:45:11.069856Z",
      "apogee_km": 483.9162517024224,
      "perigee_km": 482.1666511973026,
      "latitude_deg": 5.89043741093235e-05,
      "longitude_deg": 118.89854288463619,
      "height_km": 483.2336429139689,
      "semi_major_axis_km": 6861.178451449862,
      "eccentricity": 0.0001275,
      "inclination_deg": 43.0015,
      "raan_deg": 235.7352,
      "arg_perigee_deg": 241.6337,
      "mean_anomaly_deg": 118.4387,
      "mean_motion_rev_day": 15.27582553
    },
    {
      "epoch": "2026-05-08T13:09:13.259232Z",
      "apogee_km": 484.1771877404299,
      "perigee_km": 482.0652924541282,
      "latitude_deg": 3.1552121188085085e-05,
      "longitude_deg": 167.2516655207737,
      "height_km": 483.2840790133967,
      "semi_major_axis_km": 6861.258240097279,
      "eccentricity": 0.0001539,
      "inclination_deg": 43.0022,
      "raan_deg": 230.9353,
      "arg_perigee_deg": 248.5633,
      "mean_anomaly_deg": 111.5055,
      "mean_motion_rev_day": 15.27555907
    },
    {
      "epoch": "2026-05-09T06:24:56.169792Z",
      "apogee_km": 483.903427638581,
      "perigee_km": 482.1704323273452,
      "latitude_deg": -2.2850539599141763e-05,
      "longitude_deg": -96.44821013896689,
      "height_km": 483.2662848579343,
      "semi_major_axis_km": 6861.173929982962,
      "eccentricity": 0.00012629,
      "inclination_deg": 43.0029,
      "raan_deg": 226.8732,
      "arg_perigee_deg": 238.506,
      "mean_anomaly_deg": 121.5668,
      "mean_motion_rev_day": 15.27584063
    },
    {
      "epoch": "2026-05-10T23:12:59.989536Z",
      "apogee_km": 484.37511686518155,
      "perigee_km": 481.73424418734703,
      "latitude_deg": 1.0390942318483852e-05,
      "longitude_deg": 0.2589672512211963,
      "height_km": 483.130046673936,
      "semi_major_axis_km": 6861.1916805262645,
      "eccentricity": 0.00019245,
      "inclination_deg": 43.0023,
      "raan_deg": 217.2719,
      "arg_perigee_deg": 256.9537,
      "mean_anomaly_deg": 103.11,
      "mean_motion_rev_day": 15.27578135
    }
  ]
}